IRIDIUM 144             
1 43249U 18030A   25149.92235445  .00000119  00000+0  35334-4 0  9991
2 43249  86.3953  90.6408 0002397  84.6456 275.5013 14.34218194375206
IRIDIUM 149             
1 43250U 18030B   25149.85892667  .00000220  00000+0  71503-4 0  9991
2 43250  86.3953  90.6388 0002437  83.4836 276.6638 14.34216581375213
IRIDIUM 157             
1 43251U 18030C   25149.87795319  .00000896  00000+0  31296-3 0  9993
2 43251  86.3955  90.6758 0002110  85.1231 275.0205 14.34219041375197
IRIDIUM 140             
1 43252U 18030D   25149.89698328  .00000288  00000+0  95720-4 0  9996
2 43252  86.3954  90.6812 0002490  86.1225 274.0255 14.34219300375252
IRIDIUM 145             
1 43253U 18030E   25149.88429563  .00000250  00000+0  82221-4 0  9990
2 43253  86.3954  90.6593 0002582  80.7865 279.3623 14.34220022375183
IRIDIUM 146             
1 43254U 18030F   25149.86527177  .00000076  00000+0  20174-4 0  9994
2 43254  86.3953  90.6808 0002593  80.7885 279.3604 14.34218016375196
IRIDIUM 148             
1 43255U 18030G   25149.90332701 -.00000125  00000+0 -51873-4 0  9994
2 43255  86.3956  90.7023 0002128  79.4342 280.7093 14.34217266375236
IRIDIUM 142             
1 43256U 18030H   25149.87161288  .00000231  00000+0  75456-4 0  9990
2 43256  86.3952  90.6183 0002703  77.1659 282.9839 14.34217365375191
